CCSDS_OMM_VERS = 2.0
CREATION_DATE  = 
ORIGINATOR     = 

OBJECT_NAME    = STARLINK-36674
OBJECT_ID      = 2026-022P
CENTER_NAME    = EARTH
REF_FRAME      = TEME
TIME_SYSTEM    = UTC
MEAN_ELEMENT_THEORY = SGP/SGP4

EPOCH          = 2026-02-26T12:42:56.913696
MEAN_MOTION    = 15.75323241
ECCENTRICITY   = .0001722
INCLINATION    = 97.2845
RA_OF_ASC_NODE = 90.9797
ARG_OF_PERICENTER = 33.0354
MEAN_ANOMALY   = 327.1018

EPHEMERIS_TYPE = 0
CLASSIFICATION_TYPE = U
NORAD_CAT_ID   = 67661
ELEMENT_SET_NO = 999
REV_AT_EPOCH   = 379
BSTAR          = .20846E-2
MEAN_MOTION_DOT = .324785E-2
MEAN_MOTION_DDOT = 0

CCSDS_OMM_VERS = 2.0
CREATION_DATE  = 
ORIGINATOR     = 

OBJECT_NAME    = STARLINK-36700
OBJECT_ID      = 2026-022Q
CENTER_NAME    = EARTH
REF_FRAME      = TEME
TIME_SYSTEM    = UTC
MEAN_ELEMENT_THEORY = SGP/SGP4

EPOCH          = 2026-02-27T00:51:43.830144
MEAN_MOTION    = 15.75370777
ECCENTRICITY   = .00024965
INCLINATION    = 97.2852
RA_OF_ASC_NODE = 91.5154
ARG_OF_PERICENTER = 123.7895
MEAN_ANOMALY   = 236.3608

EPHEMERIS_TYPE = 0
CLASSIFICATION_TYPE = U
NORAD_CAT_ID   = 67662
ELEMENT_SET_NO = 999
REV_AT_EPOCH   = 387
BSTAR          = .24141941E-2
MEAN_MOTION_DOT = .379383E-2
MEAN_MOTION_DDOT = 0

CCSDS_OMM_VERS = 2.0
CREATION_DATE  = 
ORIGINATOR     = 

OBJECT_NAME    = STARLINK-36675
OBJECT_ID      = 2026-022R
CENTER_NAME    = EARTH
REF_FRAME      = TEME
TIME_SYSTEM    = UTC
MEAN_ELEMENT_THEORY = SGP/SGP4

EPOCH          = 2026-02-27T06:59:41.171136
MEAN_MOTION    = 15.75337015
ECCENTRICITY   = .00007575
INCLINATION    = 97.2849
RA_OF_ASC_NODE = 91.7802
ARG_OF_PERICENTER = 125.3867
MEAN_ANOMALY   = 234.7469

EPHEMERIS_TYPE = 0
CLASSIFICATION_TYPE = U
NORAD_CAT_ID   = 67663
ELEMENT_SET_NO = 999
REV_AT_EPOCH   = 391
BSTAR          = .1957183E-2
MEAN_MOTION_DOT = .304383E-2
MEAN_MOTION_DDOT = 0

CCSDS_OMM_VERS = 2.0
CREATION_DATE  = 
ORIGINATOR     = 

OBJECT_NAME    = STARLINK-36404
OBJECT_ID      = 2026-022S
CENTER_NAME    = EARTH
REF_FRAME      = TEME
TIME_SYSTEM    = UTC
MEAN_ELEMENT_THEORY = SGP/SGP4

EPOCH          = 2026-02-27T00:49:11.380800
MEAN_MOTION    = 15.75290189
ECCENTRICITY   = .00012816
INCLINATION    = 97.2834
RA_OF_ASC_NODE = 91.5165
ARG_OF_PERICENTER = 101.7965
MEAN_ANOMALY   = 258.3444

EPHEMERIS_TYPE = 0
CLASSIFICATION_TYPE = U
NORAD_CAT_ID   = 67664
ELEMENT_SET_NO = 999
REV_AT_EPOCH   = 387
BSTAR          = .17594707E-2
MEAN_MOTION_DOT = .272016E-2
MEAN_MOTION_DDOT = 0

CCSDS_OMM_VERS = 2.0
CREATION_DATE  = 
ORIGINATOR     = 

OBJECT_NAME    = STARLINK-36399
OBJECT_ID      = 2026-022T
CENTER_NAME    = EARTH
REF_FRAME      = TEME
TIME_SYSTEM    = UTC
MEAN_ELEMENT_THEORY = SGP/SGP4

EPOCH          = 2026-02-27T00:48:10.644192
MEAN_MOTION    = 15.75343747
ECCENTRICITY   = .00012756
INCLINATION    = 97.2843
RA_OF_ASC_NODE = 91.5183
ARG_OF_PERICENTER = 143.7200
MEAN_ANOMALY   = 216.4152

EPHEMERIS_TYPE = 0
CLASSIFICATION_TYPE = U
NORAD_CAT_ID   = 67665
ELEMENT_SET_NO = 999
REV_AT_EPOCH   = 387
BSTAR          = .24143827E-2
MEAN_MOTION_DOT = .378958E-2
MEAN_MOTION_DDOT = 0

CCSDS_OMM_VERS = 2.0
CREATION_DATE  = 
ORIGINATOR     = 

OBJECT_NAME    = STARLINK-36365
OBJECT_ID      = 2026-022U
CENTER_NAME    = EARTH
REF_FRAME      = TEME
TIME_SYSTEM    = UTC
MEAN_ELEMENT_THEORY = SGP/SGP4

EPOCH          = 2026-02-27T00:46:08.393376
MEAN_MOTION    = 15.75350291
ECCENTRICITY   = .00015596
INCLINATION    = 97.2828
RA_OF_ASC_NODE = 91.5203
ARG_OF_PERICENTER = 120.0540
MEAN_ANOMALY   = 240.0880

EPHEMERIS_TYPE = 0
CLASSIFICATION_TYPE = U
NORAD_CAT_ID   = 67666
ELEMENT_SET_NO = 999
REV_AT_EPOCH   = 387
BSTAR          = .22084382E-2
MEAN_MOTION_DOT = .345334E-2
MEAN_MOTION_DDOT = 0

CCSDS_OMM_VERS = 2.0
CREATION_DATE  = 
ORIGINATOR     = 

OBJECT_NAME    = STARLINK-36622
OBJECT_ID      = 2026-022V
CENTER_NAME    = EARTH
REF_FRAME      = TEME
TIME_SYSTEM    = UTC
MEAN_ELEMENT_THEORY = SGP/SGP4

EPOCH          = 2026-02-27T02:15:04.897152
MEAN_MOTION    = 15.75207906
ECCENTRICITY   = .00015623
INCLINATION    = 97.2858
RA_OF_ASC_NODE = 91.5908
ARG_OF_PERICENTER = 87.8927
MEAN_ANOMALY   = 272.2517

EPHEMERIS_TYPE = 0
CLASSIFICATION_TYPE = U
NORAD_CAT_ID   = 67667
ELEMENT_SET_NO = 999
REV_AT_EPOCH   = 388
BSTAR          = .36153633E-3
MEAN_MOTION_DOT = .54181E-3
MEAN_MOTION_DDOT = 0

CCSDS_OMM_VERS = 2.0
CREATION_DATE  = 
ORIGINATOR     = 

OBJECT_NAME    = STARLINK-36625
OBJECT_ID      = 2026-022W
CENTER_NAME    = EARTH
REF_FRAME      = TEME
TIME_SYSTEM    = UTC
MEAN_ELEMENT_THEORY = SGP/SGP4

EPOCH          = 2026-02-27T02:13:02.909856
MEAN_MOTION    = 15.75168478
ECCENTRICITY   = .00012757
INCLINATION    = 97.2875
RA_OF_ASC_NODE = 91.5939
ARG_OF_PERICENTER = 88.3846
MEAN_ANOMALY   = 271.7566

EPHEMERIS_TYPE = 0
CLASSIFICATION_TYPE = U
NORAD_CAT_ID   = 67668
ELEMENT_SET_NO = 999
REV_AT_EPOCH   = 388
BSTAR          = .1374365E-2
MEAN_MOTION_DOT = .209786E-2
MEAN_MOTION_DDOT = 0

CCSDS_OMM_VERS = 2.0
CREATION_DATE  = 
ORIGINATOR     = 

OBJECT_NAME    = STARLINK-36639
OBJECT_ID      = 2026-022X
CENTER_NAME    = EARTH
REF_FRAME      = TEME
TIME_SYSTEM    = UTC
MEAN_ELEMENT_THEORY = SGP/SGP4

EPOCH          = 2026-02-27T02:10:30.514944
MEAN_MOTION    = 15.75143466
ECCENTRICITY   = .00023992
INCLINATION    = 97.2852
RA_OF_ASC_NODE = 91.5929
ARG_OF_PERICENTER = 92.8191
MEAN_ANOMALY   = 267.3349

EPHEMERIS_TYPE = 0
CLASSIFICATION_TYPE = U
NORAD_CAT_ID   = 67669
ELEMENT_SET_NO = 999
REV_AT_EPOCH   = 388
BSTAR          = .1130171E-2
MEAN_MOTION_DOT = .171536E-2
MEAN_MOTION_DDOT = 0

CCSDS_OMM_VERS = 2.0
CREATION_DATE  = 
ORIGINATOR     = 

OBJECT_NAME    = STARLINK-36596
OBJECT_ID      = 2026-022Y
CENTER_NAME    = EARTH
REF_FRAME      = TEME
TIME_SYSTEM    = UTC
MEAN_ELEMENT_THEORY = SGP/SGP4

EPOCH          = 2026-02-27T02:07:57.439200
MEAN_MOTION    = 15.75197250
ECCENTRICITY   = .00016155
INCLINATION    = 97.2850
RA_OF_ASC_NODE = 91.5966
ARG_OF_PERICENTER = 93.3924
MEAN_ANOMALY   = 266.7526

EPHEMERIS_TYPE = 0
CLASSIFICATION_TYPE = U
NORAD_CAT_ID   = 67670
ELEMENT_SET_NO = 999
REV_AT_EPOCH   = 388
BSTAR          = .89207072E-4
MEAN_MOTION_DOT = .13201E-3
MEAN_MOTION_DDOT = 0

CCSDS_OMM_VERS = 2.0
CREATION_DATE  = 
ORIGINATOR     = 

OBJECT_NAME    = STARLINK-36297
OBJECT_ID      = 2026-022Z
CENTER_NAME    = EARTH
REF_FRAME      = TEME
TIME_SYSTEM    = UTC
MEAN_ELEMENT_THEORY = SGP/SGP4

EPOCH          = 2026-02-27T02:04:56.124480
MEAN_MOTION    = 15.75537170
ECCENTRICITY   = .00015451
INCLINATION    = 97.2843
RA_OF_ASC_NODE = 91.5968
ARG_OF_PERICENTER = 79.8713
MEAN_ANOMALY   = 280.2726

EPHEMERIS_TYPE = 0
CLASSIFICATION_TYPE = U
NORAD_CAT_ID   = 67671
ELEMENT_SET_NO = 999
REV_AT_EPOCH   = 388
BSTAR          = .2235376E-2
MEAN_MOTION_DOT = .352693E-2
MEAN_MOTION_DDOT = 0

CCSDS_OMM_VERS = 2.0
CREATION_DATE  = 
ORIGINATOR     = 

OBJECT_NAME    = STARLINK-36616
OBJECT_ID      = 2026-022AA
CENTER_NAME    = EARTH
REF_FRAME      = TEME
TIME_SYSTEM    = UTC
MEAN_ELEMENT_THEORY = SGP/SGP4

EPOCH          = 2026-02-27T02:06:56.698272
MEAN_MOTION    = 15.75221647
ECCENTRICITY   = .000201
INCLINATION    = 97.2837
RA_OF_ASC_NODE = 91.5958
ARG_OF_PERICENTER = 116.4229
MEAN_ANOMALY   = 243.7243

EPHEMERIS_TYPE = 0
CLASSIFICATION_TYPE = U
NORAD_CAT_ID   = 67672
ELEMENT_SET_NO = 999
REV_AT_EPOCH   = 388
BSTAR          = .70170938E-3
MEAN_MOTION_DOT = .105992E-2
MEAN_MOTION_DDOT = 0

