STARLINK-36674          
1 67661U 26022P   26057.52982539  .00324785  00000+0  20846-2 0  9991
2 67661  97.2845  90.9797 0001722  33.0354 327.1018 15.75323241  3798
STARLINK-36700          
1 67662U 26022Q   26058.03592396  .00379383  00000+0  24142-2 0  9994
2 67662  97.2852  91.5154 0002496 123.7895 236.3608 15.75370777  3878
STARLINK-36675          
1 67663U 26022R   26058.29144874  .00304383  00000+0  19572-2 0  9996
2 67663  97.2849  91.7802 0000757 125.3867 234.7469 15.75337015  3912
STARLINK-36404          
1 67664U 26022S   26058.03415950  .00272016  00000+0  17595-2 0  9995
2 67664  97.2834  91.5165 0001281 101.7965 258.3444 15.75290189  3877
STARLINK-36399          
1 67665U 26022T   26058.03345653  .00378958  00000+0  24144-2 0  9998
2 67665  97.2843  91.5183 0001275 143.7200 216.4152 15.75343747  3879
STARLINK-36365          
1 67666U 26022U   26058.03204159  .00345334  00000+0  22084-2 0  9997
2 67666  97.2828  91.5203 0001559 120.0540 240.0880 15.75350291  3879
STARLINK-36622          
1 67667U 26022V   26058.09380668  .00054181  00000+0  36154-3 0  9995
2 67667  97.2858  91.5908 0001562  87.8927 272.2517 15.75207906  3887
STARLINK-36625          
1 67668U 26022W   26058.09239479  .00209786  00000+0  13744-2 0  9991
2 67668  97.2875  91.5939 0001275  88.3846 271.7566 15.75168478  3886
STARLINK-36639          
1 67669U 26022X   26058.09063096  .00171536  00000+0  11302-2 0  9991
2 67669  97.2852  91.5929 0002399  92.8191 267.3349 15.75143466  3882
STARLINK-36596          
1 67670U 26022Y   26058.08885925  .00013201  00000+0  89207-4 0  9990
2 67670  97.2850  91.5966 0001615  93.3924 266.7526 15.75197250  3883
STARLINK-36297          
1 67671U 26022Z   26058.08676070  .00352693  00000+0  22354-2 0  9999
2 67671  97.2843  91.5968 0001545  79.8713 280.2726 15.75537170  3887
STARLINK-36616          
1 67672U 26022AA  26058.08815623  .00105992  00000+0  70171-3 0  9998
2 67672  97.2837  91.5958 0002010 116.4229 243.7243 15.75221647  3885
